STARLINK-35887          
1 66959U 25288A   26061.07183087  .00026417  00000+0  96589-3 0  9998
2 66959  43.0021  66.3716 0000377 265.9877  94.0932 15.27585469 14124
STARLINK-35879          
1 66960U 25288B   26061.02057873  .00034187  00000+0  12454-2 0  9999
2 66960  43.0002  66.8412 0001409 273.3390  86.7301 15.27598398 14115
STARLINK-35761          
1 66961U 25288C   26061.05126774  .00024508  00000+0  89648-3 0  9996
2 66961  42.9950  66.2058 0001251 140.6846 219.4097 15.27604743 14123
STARLINK-35874          
1 66962U 25288D   26061.04755664  .00022526  00000+0  82504-3 0  9994
2 66962  42.9970  67.0362 0000993 183.9947 176.0897 15.27601902 14116
STARLINK-36133          
1 66963U 25288E   26061.02186256  .00022714  00000+0  83205-3 0  9996
2 66963  43.0020  66.8476 0000946 244.3503 115.7251 15.27594017 14118
STARLINK-36104          
1 66964U 25288F   26061.03856219  .00033841  00000+0  12324-2 0  9997
2 66964  42.9990  66.9740 0000880 224.4266 135.6516 15.27612584 14115
STARLINK-36067          
1 66965U 25288G   26061.06283116  .00022581  00000+0  82707-3 0  9993
2 66965  42.9964  66.2948 0001274 182.6417 177.4428 15.27600064 14128
STARLINK-36139          
1 66966U 25288H   26061.06410975  .00019193  00000+0  70395-3 0  9994
2 66966  43.0011  66.2998 0000966 213.0911 146.9880 15.27637457 14123
STARLINK-36136          
1 66967U 25288J   26061.07439543  .00028103  00000+0  10264-2 0  9997
2 66967  43.0003  66.3807 0001205 226.1187 133.9565 15.27594561 14126
STARLINK-36152          
1 66968U 25288K   26061.03213580  .00025231  00000+0  92252-3 0  9992
2 66968  42.9998  66.9214 0001709 149.4520 210.6431 15.27606366 14114
STARLINK-36149          
1 66969U 25288L   26061.04113293  .00030878  00000+0  11259-2 0  9994
2 66969  42.9954  66.9930 0000969 174.2816 185.8047 15.27610502 14116
STARLINK-35703          
1 66970U 25288M   26061.06026105  .00026819  00000+0  97973-3 0  9991
2 66970  42.9965  66.2695 0001464 145.7393 214.3553 15.27608407 14127
STARLINK-35678          
1 66971U 25288N   26061.07953646  .00024221  00000+0  88637-3 0  9994
2 66971  42.9979  66.4153 0001237 206.6856 153.3932 15.27596021 14124
STARLINK-34846          
1 66972U 25288P   26061.06797073  .00024497  00000+0  89596-3 0  9994
2 66972  43.0027  66.3341 0003358 296.8111  63.2397 15.27606102 14126
STARLINK-35778          
1 66973U 25288Q   26061.12050824  .00025160  00000+0  92019-3 0  9990
2 66973  42.9989  65.8676 0000865 265.5947  94.4805 15.27598626 14139
STARLINK-35780          
1 66974U 25288R   26061.04870328  .00025511  00000+0  93305-3 0  9990
2 66974  42.9960  66.1849 0000599 191.8767 168.2070 15.27591751 14125
STARLINK-35777          
1 66975U 25288S   26061.04627248  .00028578  00000+0  10430-2 0  9995
2 66975  42.9944  67.0285 0000742 160.4040 199.6840 15.27611229 14113
