[{"OBJECT_NAME":"STARLINK-35887","OBJECT_ID":"2025-288A","EPOCH":"2026-03-02T01:43:26.187168","MEAN_MOTION":15.27585469,"ECCENTRICITY":3.77e-5,"INCLINATION":43.0021,"RA_OF_ASC_NODE":66.3716,"ARG_OF_PERICENTER":265.9877,"MEAN_ANOMALY":94.0932,"EPHEMERIS_TYPE":0,"CLASSIFICATION_TYPE":"U","NORAD_CAT_ID":66959,"ELEMENT_SET_NO":999,"REV_AT_EPOCH":1412,"BSTAR":0.00096589,"MEAN_MOTION_DOT":0.00026417,"MEAN_MOTION_DDOT":0},{"OBJECT_NAME":"STARLINK-35879","OBJECT_ID":"2025-288B","EPOCH":"2026-03-02T00:29:38.002272","MEAN_MOTION":15.27598398,"ECCENTRICITY":0.0001409,"INCLINATION":43.0002,"RA_OF_ASC_NODE":66.8412,"ARG_OF_PERICENTER":273.339,"MEAN_ANOMALY":86.7301,"EPHEMERIS_TYPE":0,"CLASSIFICATION_TYPE":"U","NORAD_CAT_ID":66960,"ELEMENT_SET_NO":999,"REV_AT_EPOCH":1411,"BSTAR":0.0012454,"MEAN_MOTION_DOT":0.00034187,"MEAN_MOTION_DDOT":0},{"OBJECT_NAME":"STARLINK-35761","OBJECT_ID":"2025-288C","EPOCH":"2026-03-02T01:13:49.532736","MEAN_MOTION":15.27604743,"ECCENTRICITY":0.0001251,"INCLINATION":42.995,"RA_OF_ASC_NODE":66.2058,"ARG_OF_PERICENTER":140.6846,"MEAN_ANOMALY":219.4097,"EPHEMERIS_TYPE":0,"CLASSIFICATION_TYPE":"U","NORAD_CAT_ID":66961,"ELEMENT_SET_NO":999,"REV_AT_EPOCH":1412,"BSTAR":0.00089648,"MEAN_MOTION_DOT":0.00024508,"MEAN_MOTION_DDOT":0},{"OBJECT_NAME":"STARLINK-35874","OBJECT_ID":"2025-288D","EPOCH":"2026-03-02T01:08:28.893696","MEAN_MOTION":15.27601902,"ECCENTRICITY":9.93e-5,"INCLINATION":42.997,"RA_OF_ASC_NODE":67.0362,"ARG_OF_PERICENTER":183.9947,"MEAN_ANOMALY":176.0897,"EPHEMERIS_TYPE":0,"CLASSIFICATION_TYPE":"U","NORAD_CAT_ID":66962,"ELEMENT_SET_NO":999,"REV_AT_EPOCH":1411,"BSTAR":0.00082504,"MEAN_MOTION_DOT":0.00022526,"MEAN_MOTION_DDOT":0},{"OBJECT_NAME":"STARLINK-36133","OBJECT_ID":"2025-288E","EPOCH":"2026-03-02T00:31:28.925184","MEAN_MOTION":15.27594017,"ECCENTRICITY":9.46e-5,"INCLINATION":43.002,"RA_OF_ASC_NODE":66.8476,"ARG_OF_PERICENTER":244.3503,"MEAN_ANOMALY":115.7251,"EPHEMERIS_TYPE":0,"CLASSIFICATION_TYPE":"U","NORAD_CAT_ID":66963,"ELEMENT_SET_NO":999,"REV_AT_EPOCH":1411,"BSTAR":0.00083205,"MEAN_MOTION_DOT":0.00022714,"MEAN_MOTION_DDOT":0},{"OBJECT_NAME":"STARLINK-36104","OBJECT_ID":"2025-288F","EPOCH":"2026-03-02T00:55:31.773216","MEAN_MOTION":15.27612584,"ECCENTRICITY":8.8e-5,"INCLINATION":42.999,"RA_OF_ASC_NODE":66.974,"ARG_OF_PERICENTER":224.4266,"MEAN_ANOMALY":135.6516,"EPHEMERIS_TYPE":0,"CLASSIFICATION_TYPE":"U","NORAD_CAT_ID":66964,"ELEMENT_SET_NO":999,"REV_AT_EPOCH":1411,"BSTAR":0.0012324,"MEAN_MOTION_DOT":0.00033841,"MEAN_MOTION_DDOT":0},{"OBJECT_NAME":"STARLINK-36067","OBJECT_ID":"2025-288G","EPOCH":"2026-03-02T01:30:28.612224","MEAN_MOTION":15.27600064,"ECCENTRICITY":0.0001274,"INCLINATION":42.9964,"RA_OF_ASC_NODE":66.2948,"ARG_OF_PERICENTER":182.6417,"MEAN_ANOMALY":177.4428,"EPHEMERIS_TYPE":0,"CLASSIFICATION_TYPE":"U","NORAD_CAT_ID":66965,"ELEMENT_SET_NO":999,"REV_AT_EPOCH":1412,"BSTAR":0.00082707,"MEAN_MOTION_DOT":0.00022581,"MEAN_MOTION_DDOT":0},{"OBJECT_NAME":"STARLINK-36139","OBJECT_ID":"2025-288H","EPOCH":"2026-03-02T01:32:19.082400","MEAN_MOTION":15.27637457,"ECCENTRICITY":9.66e-5,"INCLINATION":43.0011,"RA_OF_ASC_NODE":66.2998,"ARG_OF_PERICENTER":213.0911,"MEAN_ANOMALY":146.988,"EPHEMERIS_TYPE":0,"CLASSIFICATION_TYPE":"U","NORAD_CAT_ID":66966,"ELEMENT_SET_NO":999,"REV_AT_EPOCH":1412,"BSTAR":0.00070395,"MEAN_MOTION_DOT":0.00019193,"MEAN_MOTION_DDOT":0},{"OBJECT_NAME":"STARLINK-36136","OBJECT_ID":"2025-288J","EPOCH":"2026-03-02T01:47:07.765152","MEAN_MOTION":15.27594561,"ECCENTRICITY":0.0001205,"INCLINATION":43.0003,"RA_OF_ASC_NODE":66.3807,"ARG_OF_PERICENTER":226.1187,"MEAN_ANOMALY":133.9565,"EPHEMERIS_TYPE":0,"CLASSIFICATION_TYPE":"U","NORAD_CAT_ID":66967,"ELEMENT_SET_NO":999,"REV_AT_EPOCH":1412,"BSTAR":0.0010264,"MEAN_MOTION_DOT":0.00028103,"MEAN_MOTION_DDOT":0},{"OBJECT_NAME":"STARLINK-36152","OBJECT_ID":"2025-288K","EPOCH":"2026-03-02T00:46:16.533120","MEAN_MOTION":15.27606366,"ECCENTRICITY":0.0001709,"INCLINATION":42.9998,"RA_OF_ASC_NODE":66.9214,"ARG_OF_PERICENTER":149.452,"MEAN_ANOMALY":210.6431,"EPHEMERIS_TYPE":0,"CLASSIFICATION_TYPE":"U","NORAD_CAT_ID":66968,"ELEMENT_SET_NO":999,"REV_AT_EPOCH":1411,"BSTAR":0.00092252,"MEAN_MOTION_DOT":0.00025231,"MEAN_MOTION_DDOT":0},{"OBJECT_NAME":"STARLINK-36149","OBJECT_ID":"2025-288L","EPOCH":"2026-03-02T00:59:13.885152","MEAN_MOTION":15.27610502,"ECCENTRICITY":9.69e-5,"INCLINATION":42.9954,"RA_OF_ASC_NODE":66.993,"ARG_OF_PERICENTER":174.2816,"MEAN_ANOMALY":185.8047,"EPHEMERIS_TYPE":0,"CLASSIFICATION_TYPE":"U","NORAD_CAT_ID":66969,"ELEMENT_SET_NO":999,"REV_AT_EPOCH":1411,"BSTAR":0.0011259,"MEAN_MOTION_DOT":0.00030878,"MEAN_MOTION_DDOT":0},{"OBJECT_NAME":"STARLINK-35703","OBJECT_ID":"2025-288M","EPOCH":"2026-03-02T01:26:46.554720","MEAN_MOTION":15.27608407,"ECCENTRICITY":0.0001464,"INCLINATION":42.9965,"RA_OF_ASC_NODE":66.2695,"ARG_OF_PERICENTER":145.7393,"MEAN_ANOMALY":214.3553,"EPHEMERIS_TYPE":0,"CLASSIFICATION_TYPE":"U","NORAD_CAT_ID":66970,"ELEMENT_SET_NO":999,"REV_AT_EPOCH":1412,"BSTAR":0.00097973,"MEAN_MOTION_DOT":0.00026819,"MEAN_MOTION_DDOT":0},{"OBJECT_NAME":"STARLINK-35678","OBJECT_ID":"2025-288N","EPOCH":"2026-03-02T01:54:31.950144","MEAN_MOTION":15.27596021,"ECCENTRICITY":0.0001237,"INCLINATION":42.9979,"RA_OF_ASC_NODE":66.4153,"ARG_OF_PERICENTER":206.6856,"MEAN_ANOMALY":153.3932,"EPHEMERIS_TYPE":0,"CLASSIFICATION_TYPE":"U","NORAD_CAT_ID":66971,"ELEMENT_SET_NO":999,"REV_AT_EPOCH":1412,"BSTAR":0.00088637,"MEAN_MOTION_DOT":0.00024221,"MEAN_MOTION_DDOT":0},{"OBJECT_NAME":"STARLINK-34846","OBJECT_ID":"2025-288P","EPOCH":"2026-03-02T01:37:52.671072","MEAN_MOTION":15.27606102,"ECCENTRICITY":0.0003358,"INCLINATION":43.0027,"RA_OF_ASC_NODE":66.3341,"ARG_OF_PERICENTER":296.8111,"MEAN_ANOMALY":63.2397,"EPHEMERIS_TYPE":0,"CLASSIFICATION_TYPE":"U","NORAD_CAT_ID":66972,"ELEMENT_SET_NO":999,"REV_AT_EPOCH":1412,"BSTAR":0.00089596,"MEAN_MOTION_DOT":0.00024497,"MEAN_MOTION_DDOT":0},{"OBJECT_NAME":"STARLINK-35778","OBJECT_ID":"2025-288Q","EPOCH":"2026-03-02T02:53:31.911936","MEAN_MOTION":15.27598626,"ECCENTRICITY":8.65e-5,"INCLINATION":42.9989,"RA_OF_ASC_NODE":65.8676,"ARG_OF_PERICENTER":265.5947,"MEAN_ANOMALY":94.4805,"EPHEMERIS_TYPE":0,"CLASSIFICATION_TYPE":"U","NORAD_CAT_ID":66973,"ELEMENT_SET_NO":999,"REV_AT_EPOCH":1413,"BSTAR":0.00092019,"MEAN_MOTION_DOT":0.0002516,"MEAN_MOTION_DDOT":0},{"OBJECT_NAME":"STARLINK-35780","OBJECT_ID":"2025-288R","EPOCH":"2026-03-02T01:10:07.963392","MEAN_MOTION":15.27591751,"ECCENTRICITY":5.99e-5,"INCLINATION":42.996,"RA_OF_ASC_NODE":66.1849,"ARG_OF_PERICENTER":191.8767,"MEAN_ANOMALY":168.207,"EPHEMERIS_TYPE":0,"CLASSIFICATION_TYPE":"U","NORAD_CAT_ID":66974,"ELEMENT_SET_NO":999,"REV_AT_EPOCH":1412,"BSTAR":0.00093305,"MEAN_MOTION_DOT":0.00025511,"MEAN_MOTION_DDOT":0},{"OBJECT_NAME":"STARLINK-35777","OBJECT_ID":"2025-288S","EPOCH":"2026-03-02T01:06:37.942272","MEAN_MOTION":15.27611229,"ECCENTRICITY":7.42e-5,"INCLINATION":42.9944,"RA_OF_ASC_NODE":67.0285,"ARG_OF_PERICENTER":160.404,"MEAN_ANOMALY":199.684,"EPHEMERIS_TYPE":0,"CLASSIFICATION_TYPE":"U","NORAD_CAT_ID":66975,"ELEMENT_SET_NO":999,"REV_AT_EPOCH":1411,"BSTAR":0.001043,"MEAN_MOTION_DOT":0.00028578,"MEAN_MOTION_DDOT":0}]
